[{"OBJECT_NAME":"SCS-01 M","OBJECT_ID":"2025-100M","EPOCH":"2026-03-09T23:50:15.541152","MEAN_MOTION":15.31880861,"ECCENTRICITY":0.00078021,"INCLINATION":97.3725,"RA_OF_ASC_NODE":145.6908,"ARG_OF_PERICENTER":292.3826,"MEAN_ANOMALY":67.6588,"EPHEMERIS_TYPE":0,"CLASSIFICATION_TYPE":"U","NORAD_CAT_ID":63993,"ELEMENT_SET_NO":999,"REV_AT_EPOCH":4565,"BSTAR":0.0012010051,"MEAN_MOTION_DOT":0.00037061,"MEAN_MOTION_DDOT":0},{"OBJECT_NAME":"STARLINK-35605","OBJECT_ID":"2025-240E","EPOCH":"2026-03-09T23:37:04.095552","MEAN_MOTION":15.30213347,"ECCENTRICITY":0.00015837,"INCLINATION":53.1602,"RA_OF_ASC_NODE":61.4355,"ARG_OF_PERICENTER":102.5589,"MEAN_ANOMALY":257.5589,"EPHEMERIS_TYPE":0,"CLASSIFICATION_TYPE":"U","NORAD_CAT_ID":66150,"ELEMENT_SET_NO":999,"REV_AT_EPOCH":2203,"BSTAR":0.0011794959,"MEAN_MOTION_DOT":0.00034752,"MEAN_MOTION_DDOT":0}]
